*******************************************************************************
Ephemeris / WWW_USER Fri Mar  7 10:37:13 2025 Pasadena, USA      / Horizons    
*******************************************************************************
Target body name: (2018 TC)                       {source: JPL#10}
Center body name: Earth (399)                     {source: DE441}
Center-site name: Mauna Kea
*******************************************************************************
Start time      : A.D. 2019-Jan-19 04:15:00.0000 UT      
Stop  time      : A.D. 2019-Jan-19 16:49:00.0000 UT      
Step-size       : 1 minutes
*******************************************************************************
Target pole/equ : undefined
Target radii    : undefined                                                    
Center geodetic : 204.5278, 19.8260847, 4.21024   {E-lon(deg),Lat(deg),Alt(km)}
Center cylindric: 204.5278, 6006.35451, 2151.0229 {E-lon(deg),Dxy(km),Dz(km)}
Center pole/equ : ITRF93                          {East-longitude positive}
Center radii    : 6378.137, 6378.137, 6356.752 km {Equator_a, b, pole_c}       
Target primary  : Sun
Vis. interferer : MOON (R_eq= 1737.400) km        {source: DE441}
Rel. light bend : Sun                             {source: DE441}
Rel. lght bnd GM: 1.3271E+11 km^3/s^2                                          
Small-body perts: Yes                             {source: SB441-N16}
Atmos refraction: NO (AIRLESS)
RA format       : HMS
Time format     : CAL 
Calendar mode   : Mixed Julian/Gregorian
RTS-only print  : NO       
EOP file        : eop.250306.p250602                                           
EOP coverage    : DATA-BASED 1962-JAN-20 TO 2025-MAR-06. PREDICTS-> 2025-JUN-01
Units conversion: 1 au= 149597870.700 km, c= 299792.458 km/s, 1 day= 86400.0 s 
Table cut-offs 1: Elevation (-90.0deg=NO ),Airmass (>38.000=NO), Daylight (YES)
Table cut-offs 2: Solar elongation (  0.0,180.0=NO ),Local Hour Angle( 0.0=NO )
Table cut-offs 3: RA/DEC angular rate (     0.0=NO )                           
*******************************************************************************
Initial IAU76/J2000 heliocentric ecliptic osculating elements (au, days, deg.):
  EPOCH=  2458399.5 ! 2018-Oct-08.00 (TDB)         Residual RMS= .20211        
   EC= .2253304451868516   QR= .9525668516843322   TP= 2458354.2554697809      
   OM= 188.9146441926015   W=  135.2493409557404   IN= 3.631837316097226       
  Equivalent ICRF heliocentric cartesian coordinates (au, au/d):
   X= 9.874490534016482E-01  Y= 2.414303737329446E-01  Z= 9.746991415829437E-02
  VX=-1.955204385424240E-03 VY= 1.722364762632024E-02 VZ= 6.197883797821973E-03
Asteroid physical parameters (km, seconds, rotational period in hours):        
   GM= n.a.                RAD= n.a.               ROTPER= n.a.                
   H= 26.6                 G= .150                 B-V= n.a.                   
                           ALBEDO= n.a.            STYP= n.a.                  
*******************************************************************************
 Date__(UT)__HR:MN     R.A._________(ICRF)_________DEC
******************************************************
$$SOE
 2019-Jan-19 10:24  m  03 27 15.034826 +10 45 55.70237
 2019-Jan-19 10:25  m  03 27 15.104321 +10 45 56.18886
 2019-Jan-19 10:26  m  03 27 15.173833 +10 45 56.67532
 2019-Jan-19 10:27  m  03 27 15.243361 +10 45 57.16177
 2019-Jan-19 10:28  m  03 27 15.312905 +10 45 57.64820
 2019-Jan-19 10:29  m  03 27 15.382465 +10 45 58.13460
 2019-Jan-19 10:30  m  03 27 15.452041 +10 45 58.62099
 2019-Jan-19 10:31  m  03 27 15.521634 +10 45 59.10735
 2019-Jan-19 10:32  m  03 27 15.591243 +10 45 59.59370
 2019-Jan-19 10:33  m  03 27 15.660869 +10 46 00.08003
 2019-Jan-19 10:34  m  03 27 15.730511 +10 46 00.56634
 2019-Jan-19 10:35  m  03 27 15.800169 +10 46 01.05263
 2019-Jan-19 10:36  m  03 27 15.869843 +10 46 01.53890
 2019-Jan-19 10:37  m  03 27 15.939534 +10 46 02.02515
 2019-Jan-19 10:38  m  03 27 16.009242 +10 46 02.51139
 2019-Jan-19 10:39  m  03 27 16.078966 +10 46 02.99761
 2019-Jan-19 10:40  m  03 27 16.148706 +10 46 03.48381
 2019-Jan-19 10:41  m  03 27 16.218463 +10 46 03.96999
 2019-Jan-19 10:42  m  03 27 16.288237 +10 46 04.45616
 2019-Jan-19 10:43  m  03 27 16.358027 +10 46 04.94230
 2019-Jan-19 10:44  m  03 27 16.427834 +10 46 05.42844
 2019-Jan-19 10:45  m  03 27 16.497657 +10 46 05.91455
 2019-Jan-19 10:46  m  03 27 16.567497 +10 46 06.40065
 2019-Jan-19 10:47  m  03 27 16.637354 +10 46 06.88673
 2019-Jan-19 10:48  m  03 27 16.707227 +10 46 07.37280
 2019-Jan-19 10:49  m  03 27 16.777117 +10 46 07.85885
 2019-Jan-19 10:50  m  03 27 16.847024 +10 46 08.34488
 2019-Jan-19 10:51  m  03 27 16.916948 +10 46 08.83090
 2019-Jan-19 10:52  m  03 27 16.986888 +10 46 09.31690
 2019-Jan-19 10:53  m  03 27 17.056845 +10 46 09.80289
 2019-Jan-19 10:54  m  03 27 17.126819 +10 46 10.28887
 2019-Jan-19 10:55  m  03 27 17.196810 +10 46 10.77482
 2019-Jan-19 10:56  m  03 27 17.266818 +10 46 11.26077
 2019-Jan-19 10:57  m  03 27 17.336842 +10 46 11.74670
 2019-Jan-19 10:58  m  03 27 17.406884 +10 46 12.23261
 2019-Jan-19 10:59  m  03 27 17.476942 +10 46 12.71852
 2019-Jan-19 11:00  m  03 27 17.547018 +10 46 13.20440
 2019-Jan-19 11:01  m  03 27 17.617110 +10 46 13.69028
 2019-Jan-19 11:02  m  03 27 17.687219 +10 46 14.17614
 2019-Jan-19 11:03  m  03 27 17.757345 +10 46 14.66199
 2019-Jan-19 11:04  m  03 27 17.827488 +10 46 15.14782
 2019-Jan-19 11:05  m  03 27 17.897649 +10 46 15.63365
 2019-Jan-19 11:06  m  03 27 17.967826 +10 46 16.11946
 2019-Jan-19 11:07  m  03 27 18.038020 +10 46 16.60525
 2019-Jan-19 11:08  m  03 27 18.108231 +10 46 17.09104
 2019-Jan-19 11:09  m  03 27 18.178460 +10 46 17.57681
 2019-Jan-19 11:10  m  03 27 18.248705 +10 46 18.06257
 2019-Jan-19 11:11  m  03 27 18.318968 +10 46 18.54832
 2019-Jan-19 11:12  m  03 27 18.389248 +10 46 19.03406
 2019-Jan-19 11:13  m  03 27 18.459544 +10 46 19.51979
 2019-Jan-19 11:14  m  03 27 18.529858 +10 46 20.00551
 2019-Jan-19 11:15  m  03 27 18.600190 +10 46 20.49121
 2019-Jan-19 11:16  m  03 27 18.670538 +10 46 20.97691
 2019-Jan-19 11:17  m  03 27 18.740903 +10 46 21.46260
 2019-Jan-19 11:18  m  03 27 18.811286 +10 46 21.94827
 2019-Jan-19 11:19  m  03 27 18.881686 +10 46 22.43394
 2019-Jan-19 11:20  m  03 27 18.952103 +10 46 22.91959
 2019-Jan-19 11:21  m  03 27 19.022538 +10 46 23.40524
 2019-Jan-19 11:22  m  03 27 19.092989 +10 46 23.89087
 2019-Jan-19 11:23  m  03 27 19.163458 +10 46 24.37650
 2019-Jan-19 11:24  m  03 27 19.233944 +10 46 24.86212
 2019-Jan-19 11:25  m  03 27 19.304448 +10 46 25.34773
 2019-Jan-19 11:26  m  03 27 19.374968 +10 46 25.83333
 2019-Jan-19 11:27  m  03 27 19.445506 +10 46 26.31893
 2019-Jan-19 11:28  m  03 27 19.516062 +10 46 26.80451
 2019-Jan-19 11:29  m  03 27 19.586634 +10 46 27.29009
 2019-Jan-19 11:30  m  03 27 19.657224 +10 46 27.77566
 2019-Jan-19 11:31  m  03 27 19.727831 +10 46 28.26122
 2019-Jan-19 11:32  m  03 27 19.798456 +10 46 28.74678
 2019-Jan-19 11:33  m  03 27 19.869098 +10 46 29.23233
 2019-Jan-19 11:34  m  03 27 19.939757 +10 46 29.71787
 2019-Jan-19 11:35  m  03 27 20.010434 +10 46 30.20340
 2019-Jan-19 11:36  m  03 27 20.081128 +10 46 30.68893
 2019-Jan-19 11:37  m  03 27 20.151839 +10 46 31.17445
 2019-Jan-19 11:38  m  03 27 20.222568 +10 46 31.65997
 2019-Jan-19 11:39  m  03 27 20.293314 +10 46 32.14548
 2019-Jan-19 11:40  m  03 27 20.364077 +10 46 32.63098
 2019-Jan-19 11:41  m  03 27 20.434858 +10 46 33.11648
 2019-Jan-19 11:42  m  03 27 20.505656 +10 46 33.60198
 2019-Jan-19 11:43  m  03 27 20.576472 +10 46 34.08747
 2019-Jan-19 11:44  m  03 27 20.647305 +10 46 34.57295
 2019-Jan-19 11:45  m  03 27 20.718156 +10 46 35.05843
 2019-Jan-19 11:46  m  03 27 20.789024 +10 46 35.54391
 2019-Jan-19 11:47  m  03 27 20.859909 +10 46 36.02938
 2019-Jan-19 11:48  m  03 27 20.930812 +10 46 36.51484
 2019-Jan-19 11:49  m  03 27 21.001732 +10 46 37.00031
 2019-Jan-19 11:50  m  03 27 21.072669 +10 46 37.48577
 2019-Jan-19 11:51  m  03 27 21.143624 +10 46 37.97122
 2019-Jan-19 11:52  m  03 27 21.214597 +10 46 38.45668
 2019-Jan-19 11:53  m  03 27 21.285587 +10 46 38.94213
 2019-Jan-19 11:54  m  03 27 21.356594 +10 46 39.42758
 2019-Jan-19 11:55  m  03 27 21.427618 +10 46 39.91302
 2019-Jan-19 11:56  m  03 27 21.498660 +10 46 40.39846
 2019-Jan-19 11:57  m  03 27 21.569720 +10 46 40.88390
 2019-Jan-19 11:58  m  03 27 21.640797 +10 46 41.36934
 2019-Jan-19 11:59  m  03 27 21.711891 +10 46 41.85478
 2019-Jan-19 12:00  m  03 27 21.783003 +10 46 42.34022
 2019-Jan-19 12:01  m  03 27 21.854132 +10 46 42.82565
 2019-Jan-19 12:02  m  03 27 21.925279 +10 46 43.31108
 2019-Jan-19 12:03  m  03 27 21.996443 +10 46 43.79652
 2019-Jan-19 12:04  m  03 27 22.067624 +10 46 44.28195
 2019-Jan-19 12:05  m  03 27 22.138823 +10 46 44.76738
 2019-Jan-19 12:06  m  03 27 22.210039 +10 46 45.25281
 2019-Jan-19 12:07  m  03 27 22.281273 +10 46 45.73824
 2019-Jan-19 12:08  m  03 27 22.352524 +10 46 46.22367
 2019-Jan-19 12:09  m  03 27 22.423792 +10 46 46.70910
 2019-Jan-19 12:10  m  03 27 22.495078 +10 46 47.19453
 2019-Jan-19 12:11  m  03 27 22.566381 +10 46 47.67997
 2019-Jan-19 12:12  m  03 27 22.637702 +10 46 48.16540
 2019-Jan-19 12:13  m  03 27 22.709040 +10 46 48.65084
 2019-Jan-19 12:14  m  03 27 22.780395 +10 46 49.13627
 2019-Jan-19 12:15  m  03 27 22.851768 +10 46 49.62171
 2019-Jan-19 12:16  m  03 27 22.923158 +10 46 50.10715
 2019-Jan-19 12:17  m  03 27 22.994565 +10 46 50.59259
 2019-Jan-19 12:18  m  03 27 23.065990 +10 46 51.07803
 2019-Jan-19 12:19  m  03 27 23.137432 +10 46 51.56348
 2019-Jan-19 12:20  m  03 27 23.208891 +10 46 52.04893
 2019-Jan-19 12:21  m  03 27 23.280368 +10 46 52.53438
 2019-Jan-19 12:22  m  03 27 23.351862 +10 46 53.01984
 2019-Jan-19 12:23  m  03 27 23.423373 +10 46 53.50529
 2019-Jan-19 12:24  s  03 27 23.494902 +10 46 53.99075
 2019-Jan-19 12:25  m  03 27 23.566448 +10 46 54.47622
 2019-Jan-19 12:26  m  03 27 23.638011 +10 46 54.96169
